{"type": "FeatureCollection", "features": [ {"type": "Feature", "properties": {"norad_id": 30048, "name": "FENGYUN 1C DEB", "group": "fengyun-1c-debris", "lat": 10.941385300381851, "lon": -139.41360506174996, "alt_km": 1089.1190217132907, "timestamp": "2025-12-23T07:45:09.677767+00:00", "meta": {"OBJECT_NAME": "FENGYUN 1C DEB", "OBJECT_ID": "1999-025NZ", "EPOCH": "2025-12-22T21:22:25.169376", "MEAN_MOTION": 13.7989848, "ECCENTRICITY": 0.01863873, "INCLINATION": 98.6659, "RA_OF_ASC_NODE": 221.8795, "ARG_OF_PERICENTER": 217.3945, "MEAN_ANOMALY": 165.7353, "EPHEMERIS_TYPE": 0, "CLASSIFICATION_TYPE": "U", "NORAD_CAT_ID": 30048, "ELEMENT_SET_NO": 999, "REV_AT_EPOCH": 95266, "BSTAR": 0.00019857656, "MEAN_MOTION_DOT": 1.95e-06, "MEAN_MOTION_DDOT": 0}, "tle": {"line1": "1 30048U 99025NZ  25356.89056909  .00000195  00000+0  19858-3 0  9995", "line2": "2 30048  98.6659 221.8795 0186387 217.3945 165.7353 13.79898480952663"}}, "geometry": {"type": "Point", "coordinates": [-139.41360506174996, 10.941385300381851]}}, {"type": "Feature", "properties": {"norad_id": 30050, "name": "FENGYUN 1C DEB", "group": "fengyun-1c-debris", "lat": -10.305130164762877, "lon": 133.38971032542304, "alt_km": 1073.4257917587147, "timestamp": "2025-12-23T07:45:09.677778+00:00", "meta": {"OBJECT_NAME": "FENGYUN 1C DEB", "OBJECT_ID": "1999-025PB", "EPOCH": "2025-12-22T20:41:07.283904", "MEAN_MOTION": 13.85078003, "ECCENTRICITY": 0.01711157, "INCLINATION": 96.819, "RA_OF_ASC_NODE": 314.3004, "ARG_OF_PERICENTER": 1.471, "MEAN_ANOMALY": 51.0894, "EPHEMERIS_TYPE": 0, "CLASSIFICATION_TYPE": "U", "NORAD_CAT_ID": 30050, "ELEMENT_SET_NO": 999, "REV_AT_EPOCH": 95342, "BSTAR": 0.0010779647, "MEAN_MOTION_DOT": 1.342e-05, "MEAN_MOTION_DDOT": 0}, "tle": {"line1": "1 30050U 99025PB  25356.86188986  .00001342  00000+0  10780-2 0  9995", "line2": "2 30050  96.8190 314.3004 0171115   1.4710  51.0894 13.85078003953422"}}, "geometry": {"type": "Point", "coordinates": [133.38971032542304, -10.305130164762877]}}, {"type": "Feature", "properties": {"norad_id": 30052, "name": "FENGYUN 1C DEB", "group": "fengyun-1c-debris", "lat": 9.44131312129695, "lon": 21.066470487473104, "alt_km": 1196.086658750025, "timestamp": "2025-12-23T07:45:09.677788+00:00", "meta": {"OBJECT_NAME": "FENGYUN 1C DEB", "OBJECT_ID": "1999-025PD", "EPOCH": "2025-12-22T13:13:45.124608", "MEAN_MOTION": 13.72971357, "ECCENTRICITY": 0.02893029, "INCLINATION": 99.2983, "RA_OF_ASC_NODE": 21.8771, "ARG_OF_PERICENTER": 206.5386, "MEAN_ANOMALY": 309.4603, "EPHEMERIS_TYPE": 0, "CLASSIFICATION_TYPE": "U", "NORAD_CAT_ID": 30052, "ELEMENT_SET_NO": 999, "REV_AT_EPOCH": 94689, "BSTAR": 0.00040157336, "MEAN_MOTION_DOT": 4.57e-06, "MEAN_MOTION_DDOT": 0}, "tle": {"line1": "1 30052U 99025PD  25356.55121672  .00000457  00000+0  40157-3 0  9990", "line2": "2 30052  99.2983  21.8771 0289302 206.5386 309.4603 13.72971357946898"}}, "geometry": {"type": "Point", "coordinates": [21.066470487473104, 9.44131312129695]}}, {"type": "Feature", "properties": {"norad_id": 30053, "name": "FENGYUN 1C DEB", "group": "fengyun-1c-debris", "lat": -67.57319369212578, "lon": -168.8532531100298, "alt_km": 690.7620666990197, "timestamp": "2025-12-23T07:45:09.677798+00:00", "meta": {"OBJECT_NAME": "FENGYUN 1C DEB", "OBJECT_ID": "1999-025PE", "EPOCH": "2025-12-22T22:30:04.835808", "MEAN_MOTION": 13.94193889, "ECCENTRICITY": 0.03313871, "INCLINATION": 98.576, "RA_OF_ASC_NODE": 169.3418, "ARG_OF_PERICENTER": 310.0555, "MEAN_ANOMALY": 208.2876, "EPHEMERIS_TYPE": 0, "CLASSIFICATION_TYPE": "U", "NORAD_CAT_ID": 30053, "ELEMENT_SET_NO": 999, "REV_AT_EPOCH": 95128, "BSTAR": 0.0015905996, "MEAN_MOTION_DOT": 3.288e-05, "MEAN_MOTION_DDOT": 0}, "tle": {"line1": "1 30053U 99025PE  25356.93755597  .00003288  00000+0  15906-2 0  9990", "line2": "2 30053  98.5760 169.3418 0331387 310.0555 208.2876 13.94193889951287"}}, "geometry": {"type": "Point", "coordinates": [-168.8532531100298, -67.57319369212578]}}, {"type": "Feature", "properties": {"norad_id": 30054, "name": "FENGYUN 1C DEB", "group": "fengyun-1c-debris", "lat": -4.967826713832485, "lon": -151.53243507680907, "alt_km": 1183.0866383857392, "timestamp": "2025-12-23T07:45:09.677808+00:00", "meta": {"OBJECT_NAME": "FENGYUN 1C DEB", "OBJECT_ID": "1999-025PF", "EPOCH": "2025-12-22T01:10:43.518720", "MEAN_MOTION": 13.69876168, "ECCENTRICITY": 0.02754667, "INCLINATION": 99.3706, "RA_OF_ASC_NODE": 28.0485, "ARG_OF_PERICENTER": 341.0461, "MEAN_ANOMALY": 46.2772, "EPHEMERIS_TYPE": 0, "CLASSIFICATION_TYPE": "U", "NORAD_CAT_ID": 30054, "ELEMENT_SET_NO": 999, "REV_AT_EPOCH": 94476, "BSTAR": 0.00050316536, "MEAN_MOTION_DOT": 5.31e-06, "MEAN_MOTION_DDOT": 0}, "tle": {"line1": "1 30054U 99025PF  25356.04911480  .00000531  00000+0  50317-3 0  9992", "line2": "2 30054  99.3706  28.0485 0275466 341.0461  46.2772 13.69876168944767"}}, "geometry": {"type": "Point", "coordinates": [-151.53243507680907, -4.967826713832485]}}, {"type": "Feature", "properties": {"norad_id": 30056, "name": "FENGYUN 1C DEB", "group": "fengyun-1c-debris", "lat": -69.07058265398575, "lon": -155.87051316894267, "alt_km": 1050.9326113703346, "timestamp": "2025-12-23T07:45:09.677818+00:00", "meta": {"OBJECT_NAME": "FENGYUN 1C DEB", "OBJECT_ID": "1999-025PH", "EPOCH": "2025-12-22T11:08:22.591968", "MEAN_MOTION": 13.74041561, "ECCENTRICITY": 0.0299186, "INCLINATION": 98.3225, "RA_OF_ASC_NODE": 180.8772, "ARG_OF_PERICENTER": 184.5595, "MEAN_ANOMALY": 175.282, "EPHEMERIS_TYPE": 0, "CLASSIFICATION_TYPE": "U", "NORAD_CAT_ID": 30056, "ELEMENT_SET_NO": 999, "REV_AT_EPOCH": 94109, "BSTAR": 0.0022699529, "MEAN_MOTION_DOT": 2.913e-05, "MEAN_MOTION_DDOT": 0}, "tle": {"line1": "1 30056U 99025PH  25356.46415037  .00002913  00000+0  22700-2 0  9997", "line2": "2 30056  98.3225 180.8772 0299186 184.5595 175.2820 13.74041561941090"}}, "geometry": {"type": "Point", "coordinates": [-155.87051316894267, -69.07058265398575]}}, {"type": "Feature", "properties": {"norad_id": 30057, "name": "FENGYUN 1C DEB", "group": "fengyun-1c-debris", "lat": 49.83840289138092, "lon": -104.27136909582812, "alt_km": 827.7234975846732, "timestamp": "2025-12-23T07:45:09.677828+00:00", "meta": {"OBJECT_NAME": "FENGYUN 1C DEB", "OBJECT_ID": "1999-025PJ", "EPOCH": "2025-12-21T04:05:56.433120", "MEAN_MOTION": 13.57140678, "ECCENTRICITY": 0.02920519, "INCLINATION": 98.8828, "RA_OF_ASC_NODE": 63.1031, "ARG_OF_PERICENTER": 124.7954, "MEAN_ANOMALY": 294.2449, "EPHEMERIS_TYPE": 0, "CLASSIFICATION_TYPE": "U", "NORAD_CAT_ID": 30057, "ELEMENT_SET_NO": 999, "REV_AT_EPOCH": 93350, "BSTAR": 0.00084398851, "MEAN_MOTION_DOT": 7.57e-06, "MEAN_MOTION_DDOT": 0}, "tle": {"line1": "1 30057U 99025PJ  25355.17079205  .00000757  00000+0  84399-3 0  9995", "line2": "2 30057  98.8828  63.1031 0292051 124.7954 294.2449 13.57140678933501"}}, "geometry": {"type": "Point", "coordinates": [-104.27136909582812, 49.83840289138092]}}, {"type": "Feature", "properties": {"norad_id": 30058, "name": "FENGYUN 1C DEB", "group": "fengyun-1c-debris", "lat": -39.98893719167795, "lon": 173.01811238686344, "alt_km": 1096.1567703631372, "timestamp": "2025-12-23T07:45:09.677838+00:00", "meta": {"OBJECT_NAME": "FENGYUN 1C DEB", "OBJECT_ID": "1999-025PK", "EPOCH": "2025-12-22T11:50:15.237888", "MEAN_MOTION": 13.48248394, "ECCENTRICITY": 0.03156765, "INCLINATION": 99.6497, "RA_OF_ASC_NODE": 0.4197, "ARG_OF_PERICENTER": 128.1499, "MEAN_ANOMALY": 23.3083, "EPHEMERIS_TYPE": 0, "CLASSIFICATION_TYPE": "U", "NORAD_CAT_ID": 30058, "ELEMENT_SET_NO": 999, "REV_AT_EPOCH": 92979, "BSTAR": 0.00064800713, "MEAN_MOTION_DOT": 5.04e-06, "MEAN_MOTION_DDOT": 0}, "tle": {"line1": "1 30058U 99025PK  25356.49323192  .00000504  00000+0  64801-3 0  9995", "line2": "2 30058  99.6497   0.4197 0315676 128.1499  23.3083 13.48248394929796"}}, "geometry": {"type": "Point", "coordinates": [173.01811238686344, -39.98893719167795]}}, {"type": "Feature", "properties": {"norad_id": 30059, "name": "FENGYUN 1C DEB", "group": "fengyun-1c-debris", "lat": -79.66768211693268, "lon": 112.93918034624818, "alt_km": 856.7069861062173, "timestamp": "2025-12-23T07:45:09.677848+00:00", "meta": {"OBJECT_NAME": "FENGYUN 1C DEB", "OBJECT_ID": "1999-025PL", "EPOCH": "2025-12-21T17:53:18.817152", "MEAN_MOTION": 13.45499195, "ECCENTRICITY": 0.03264796, "INCLINATION": 98.8226, "RA_OF_ASC_NODE": 349.9632, "ARG_OF_PERICENTER": 279.7837, "MEAN_ANOMALY": 267.6002, "EPHEMERIS_TYPE": 0, "CLASSIFICATION_TYPE": "U", "NORAD_CAT_ID": 30059, "ELEMENT_SET_NO": 999, "REV_AT_EPOCH": 92918, "BSTAR": 0.00025876471, "MEAN_MOTION_DOT": 1.72e-06, "MEAN_MOTION_DDOT": 0}, "tle": {"line1": "1 30059U 99025PL  25355.74535668  .00000172  00000+0  25876-3 0  9996", "line2": "2 30059  98.8226 349.9632 0326479 279.7837 267.6002 13.45499195929186"}}, "geometry": {"type": "Point", "coordinates": [112.93918034624818, -79.66768211693268]}}, {"type": "Feature", "properties": {"norad_id": 30060, "name": "FENGYUN 1C DEB", "group": "fengyun-1c-debris", "lat": 78.74825269542752, "lon": 167.66392560403952, "alt_km": 881.9906865933181, "timestamp": "2025-12-23T07:45:09.677858+00:00", "meta": {"OBJECT_NAME": "FENGYUN 1C DEB", "OBJECT_ID": "1999-025PM", "EPOCH": "2025-12-22T03:30:35.254368", "MEAN_MOTION": 13.43793247, "ECCENTRICITY": 0.03457092, "INCLINATION": 99.3149, "RA_OF_ASC_NODE": 222.1572, "ARG_OF_PERICENTER": 48.1854, "MEAN_ANOMALY": 103.1127, "EPHEMERIS_TYPE": 0, "CLASSIFICATION_TYPE": "U", "NORAD_CAT_ID": 30060, "ELEMENT_SET_NO": 999, "REV_AT_EPOCH": 92369, "BSTAR": 0.0024433169, "MEAN_MOTION_DOT": 1.978e-05, "MEAN_MOTION_DDOT": 0}, "tle": {"line1": "1 30060U 99025PM  25356.14624137  .00001978  00000+0  24433-2 0  9995", "line2": "2 30060  99.3149 222.1572 0345709  48.1854 103.1127 13.43793247923692"}}, "geometry": {"type": "Point", "coordinates": [167.66392560403952, 78.74825269542752]}}]}